SPECGRP,SPECGRPN,NAME,ADDRESS,CITY,ZIP,COUNTY,ASSETS,DEPOSITS, DEPDOM ,EQUITY,NETINC,ROA,ROE,OFFDOM,WEBADDR,NAMEHCR,ROAPTX,TRUST,CERTCONS,BKCLASS,CHRTAGNT,ENDEFYMD,ESTYMD,INSDATE,REPDTE,RISDATE,STCHRTR,STCNTY,FLDOFF,REGAGNT,OFFFOR,STALPHCR,STMULT,SUBCHAPS
2,Agricultural  Specialization,First National Bank of Clarksdale,402 East Second Street,Clarksdale,38614,Coahoma,365691,287513,287513,39519,2807,1.01,9.96,5,http://fnbclarksdale.com,First Valley National Corp.,1.38,1,0,N,OCC,12/31/9999,4/1/1964,4/1/1964,9/30/2014,9/30/2014,0,28027,Memphis,OCC,0,MS,0,0
2,Agricultural  Specialization,Bank of Okolona,227 West Main Street,Okolona,38860,Chickasaw,144971,124551,124551,17542,2270,2.08,17.99,3,http://www.bankofokolona.com,Bancorp Of Okolona,2.08,0,0,NM,STATE,12/31/9999,1/31/1931,1/1/1934,9/30/2014,9/30/2014,1,28017,Jackson Ms,FDIC,0,MS,0,1
2,Agricultural  Specialization,Bank of Anguilla,130 Holland Street,Anguilla,38721,Sharkey,128793,103384,103384,13906,736,0.78,7.42,5, ,Pyramid Financial Corporation,0.93,0,0,NM,STATE,12/31/9999,1/1/1904,1/1/1934,9/30/2014,9/30/2014,1,28125,Jackson Ms,FDIC,0,MS,0,0
2,Agricultural  Specialization,Citizens Bank & Trust Co.,239 East Main St,Marks,38646,Quitman,123637,100049,100049,12758,746,0.78,8,3,www.cbt-co.com,"Cb&T Bancshares, Inc.",0.78,1,0,NM,STATE,12/31/9999,8/17/1917,1/1/1934,9/30/2014,9/30/2014,1,28119,Memphis,FDIC,0,MS,0,1
2,Agricultural  Specialization,The Jefferson Bank,1445 Main Street,Fayette,39069,Jefferson,113078,84214,84214,16564,1125,1.44,9.38,4,www.thejeffersonbank.com,Southeast Arkansas Bank Corporation,2.46,0,0,NM,STATE,12/31/9999,1/3/1901,1/1/1934,9/30/2014,9/30/2014,1,28063,Jackson Ms,FDIC,0,AR,0,0
2,Agricultural  Specialization,Covington County Bank,102 S Dogwood Ave,Collins,39428,Covington,67411,59781,59781,6962,329,0.65,6.54,1,www.covcobank.com,Covington Capital Corporation,0.9,1,0,NM,STATE,12/31/9999,5/1/1975,5/1/1975,9/30/2014,9/30/2014,1,28031,Jackson Ms,FDIC,0,MS,0,0
2,Agricultural  Specialization,Tallahatchie County Bank,2 East Main Street,Charleston,38921,Tallahatchie,57501,51690,51690,5729,282,0.64,6.68,1, ,Tallahatchie Holding Company,0.68,1,0,NM,STATE,12/31/9999,11/11/1913,4/22/1947,9/30/2014,9/30/2014,1,28135,Memphis,FDIC,0,MS,0,0
2,Agricultural  Specialization,The Bank of Bolivar County,2nd And Forest Street,Shelby,38774,Bolivar,15917,14278,14278,1604,16,0.13,1.47,2, ,Bolivar Banking Corporation,0.13,0,0,NM,STATE,12/31/9999,9/5/1940,4/4/1941,9/30/2014,9/30/2014,1,28011,Jackson Ms,FDIC,0,MS,0,0
4,Commercial Lending Specialization,Whitney Bank,1 Hancock Plaza,Gulfport,39501,Harrison,19870445,15820801,15442134,2465076,142259,0.98,7.78,202,www.hancockbank.com,Hancock Holding Company,1.35,1,0,NM,STATE,12/31/9999,1899-10-09,1/1/1934,9/30/2014,9/30/2014,1,28047,Jackson Ms,FDIC,1,MS,1,0
4,Commercial Lending Specialization,BancorpSouth Bank,One Mississippi Plaza,Tupelo,38801,Lee,13063852,10661394,10661394,1589175,91007,0.93,7.78,272,www.bancorpsouth.com,"Bancorpsouth, Inc.",1.35,1,0,NM,STATE,12/31/9999,1876-03-01,1/1/1934,9/30/2014,9/30/2014,1,28081,Jackson Ms,FDIC,0,MS,1,0
4,Commercial Lending Specialization,Trustmark National Bank,248 East Capitol Street,Jackson,39201,Hinds,12093553,9532616,9532616,1456191,96709,1.07,9.04,227,http://www.trustmark.com,Trustmark Corporation,1.41,1,0,N,OCC,12/31/9999,1889-12-19,1/1/1934,9/30/2014,9/30/2014,0,28049,Jackson Ms,OCC,0,MS,1,0
4,Commercial Lending Specialization,Renasant Bank,209 Troy Street,Tupelo,38801,Lee,5736440,4767908,4767908,774244,46029,1.06,8.11,113,www.renasantbank.com,Renasant Corporation,1.53,1,0,NM,STATE,12/31/9999,2/27/1904,1/1/1934,9/30/2014,9/30/2014,1,28081,Jackson Ms,FDIC,0,MS,1,0
4,Commercial Lending Specialization,BankPlus,202 Jackson Street,Belzoni,39038,Humphreys,2422310,1926109,1926109,233180,16027,0.88,9.46,60,http://www.bankplus.net,Bancplus Corporation,1.21,1,0,NM,STATE,12/31/9999,1/1/1909,1/1/1934,9/30/2014,9/30/2014,1,28053,Jackson Ms,FDIC,0,MS,0,0
4,Commercial Lending Specialization,The Citizens National Bank of Meridian,512 22nd Avenue,Meridian,39301,Lauderdale,1084748,931423,931423,132402,10743,1.3,11.18,29,http://www.yourcnb.com,Citizens National Banc Corp.,1.3,1,0,N,OCC,12/31/9999,1888-01-01,1/1/1934,9/30/2014,9/30/2014,0,28075,Jackson Ms,OCC,0,MS,0,1
4,Commercial Lending Specialization,"The First,  A   National Banking Association",6480 Ushwy 98 West,Hattiesburg,39402,Lamar,1071293,902889,902889,103096,5149,0.69,7.02,28,www.thefirstbank.com,"First Bancshares, Inc., The",0.94,0,0,N,OCC,12/31/9999,8/5/1996,8/5/1996,9/30/2014,9/30/2014,0,28073,Jackson Ms,OCC,0,MS,1,0
4,Commercial Lending Specialization,State Bank & Trust Company,916 Highway 82 Bypass,Greenwood,38930,Leflore,973144,797637,797637,110337,4672,0.65,5.81,35,http://statebank1898.com,State Bank & Trust Company Employee Stock Ownership Plan,0.98,1,0,NM,STATE,12/31/9999,1898-11-01,1/1/1934,9/30/2014,9/30/2014,1,28083,Jackson Ms,FDIC,0,MS,1,0
4,Commercial Lending Specialization,Metropolitan Bank,201 S. Jackson Street,Crystal Springs,39059,Copiah,892294,735171,735171,75855,3749,0.56,6.86,11,http://www.themetropolitanbank.com,"Metropolitan Bancgroup, Inc.",0.93,0,0,NM,STATE,12/31/9999,10/11/1976,10/11/1976,9/30/2014,9/30/2014,1,28029,Jackson Ms,FDIC,0,MS,1,0
4,Commercial Lending Specialization,"The Citizens Bank of Philadelphia, Mississippi",521 Main Street,Philadelphia,39350,Neshoba,889492,696953,696953,77531,5913,0.89,10.94,23,www.thecitizensbankphila.com,Citizens Holding Company,1.11,1,0,NM,STATE,12/31/9999,1/1/1908,1/1/1934,9/30/2014,9/30/2014,1,28099,Jackson Ms,FDIC,0,MS,0,0
4,Commercial Lending Specialization,"The Peoples Bank, Biloxi, Mississippi",Lameuse And Howard Avenues,Biloxi,39533,Harrison,749573,449862,449862,98525,-828,-0.15,-1.13,19,thepeoples.com,Peoples Financial Corporation,-0.42,1,0,NM,STATE,12/31/9999,1896-04-13,1/1/1934,9/30/2014,9/30/2014,1,28047,Jackson Ms,FDIC,0,MS,0,0
4,Commercial Lending Specialization,BankFirst Financial Services,110 South Jefferson Street,Macon,39341,Noxubee,713634,626250,626250,68346,4558,0.86,8.76,11,http://www.bankfirstfs.com,Bankfirst Capital Corporation,1.27,0,0,SM,STATE,12/31/9999,1888-06-01,1/1/1934,9/30/2014,9/30/2014,1,28103,Jackson Ms,FED,0,MS,1,0
4,Commercial Lending Specialization,Community Bank of Mississippi,323 East Third Street,Forest,39074,Scott,688668,615936,615936,59801,5258,1.01,11.74,17,www.communitybank.net,"Community Bancshares Of Mississippi, Inc. Employee Stock Ownership Plan",1.55,0,0,NM,STATE,12/31/9999,8/14/1905,1/1/1934,9/30/2014,9/30/2014,1,28123,Jackson Ms,FDIC,0,MS,1,0
4,Commercial Lending Specialization,"Community Bank, Coast",677 Dr. Martin Luther King Jr. Boulevard,Biloxi,39530,Harrison,678003,586478,586478,74011,3563,0.73,6.45,17,www.communitybank.net,"Community Bancshares Of Mississippi, Inc. Employee Stock Ownership Plan",1.11,0,0,NM,STATE,12/31/9999,1/22/1996,1/22/1996,9/30/2014,9/30/2014,1,28047,Jackson Ms,FDIC,0,MS,1,0
4,Commercial Lending Specialization,Community Bank,300 Jessamine Street,Ellisville,39437,Jones,676421,601145,601145,60245,5884,1.18,13.08,11,www.communitybank.net,"Community Bancshares Of Mississippi, Inc. Employee Stock Ownership Plan",1.87,1,0,NM,STATE,12/31/9999,10/1/1902,1/1/1934,9/30/2014,9/30/2014,1,28067,Jackson Ms,FDIC,0,MS,0,0
4,Commercial Lending Specialization,Guaranty Bank and Trust Company,210 N. Hayden St,Belzoni,39038,Humphreys,599341,494285,494285,69490,6769,1.47,13.1,14,http://www.gbtonline.com,Guaranty Capital Corporation,1.47,1,0,NM,STATE,12/31/9999,5/17/1943,5/17/1943,9/30/2014,9/30/2014,1,28053,Jackson Ms,FDIC,0,MS,0,1
4,Commercial Lending Specialization,PriorityOne  Bank,220 North Main Avenue,Magee,39111,Simpson,554384,464034,464034,62485,6845,1.66,14.79,12,priorityonebank.com,Priorityone Capital Corporation,1.66,1,0,NM,STATE,12/31/9999,1/27/1975,1/27/1975,9/30/2014,9/30/2014,1,28127,Jackson Ms,FDIC,0,MS,0,1
4,Commercial Lending Specialization,First State Bank,708 Azalea Drive,Waynesboro,39367,Wayne,541028,388674,388674,56309,4302,1.08,10.59,12,http://firststatebnk.com,First State Corporation,1.46,1,0,NM,STATE,12/31/9999,5/1/1934,5/1/1939,9/30/2014,9/30/2014,1,28153,Jackson Ms,FDIC,0,MS,0,0
4,Commercial Lending Specialization,First Security Bank,295 Highway 6 West,Batesville,38606,Panola,491770,410004,410004,63829,3564,0.95,7.69,17,www.firstsecuritybk.com,Security Capital Corporation,1.24,1,0,NM,STATE,12/31/9999,7/1/1952,7/1/1952,9/30/2014,9/30/2014,1,28107,Memphis,FDIC,0,MS,0,0
4,Commercial Lending Specialization,"Community Bank, North Mississippi",900 North Main Street,Amory,38821,Monroe,471375,410966,410966,51155,2540,0.7,6.65,9,www.communitybank.net,"Community Bancshares Of Mississippi, Inc. Employee Stock Ownership Plan",1.09,1,0,NM,STATE,12/31/9999,5/20/1912,1/1/1934,9/30/2014,9/30/2014,1,28095,Jackson Ms,FDIC,0,MS,1,0
4,Commercial Lending Specialization,BNA Bank,205 Bankhead Street,New Albany,38652,Union,426329,359113,359113,56082,4360,1.36,10.96,5,www.bnabank.com,"Bna Bancshares, Inc.",1.68,1,0,NM,STATE,12/31/9999,1896-01-01,6/3/1965,9/30/2014,9/30/2014,1,28145,Memphis,FDIC,0,MS,0,0
4,Commercial Lending Specialization,First Bank,105 South Broadway Street,Mccomb,39648,Pike,386191,344208,344208,39453,3496,1.2,12.14,11,WWW.FIRSTBANKMS.COM,First Southwest Corporation,1.2,1,0,NM,STATE,12/31/9999,1895-06-25,1/1/1934,9/30/2014,9/30/2014,1,28113,Jackson Ms,FDIC,0,MS,0,1
4,Commercial Lending Specialization,Citizens Bank,814 Main Street,Columbia,39429,Marion,381216,329827,329827,36746,4839,1.72,18.49,7,WWW.CITIZENSBK.COM,Citizens Corporation,1.72,1,0,NM,STATE,12/31/9999,7/15/1914,1/1/1934,9/30/2014,9/30/2014,1,28091,Jackson Ms,FDIC,0,MS,0,1
4,Commercial Lending Specialization,United Mississippi Bank,203 South Commerce Street,Natchez,39120,Adams,362511,324159,324159,33141,2290,0.83,9.65,11,www.unitedmsbk.com,"Southwest Security, Inc.",0.83,0,0,NM,STATE,12/31/9999,5/14/1973,5/14/1973,9/30/2014,9/30/2014,1,28001,Jackson Ms,FDIC,0,MS,1,1
4,Commercial Lending Specialization,Bank of Commerce,310 Howard Street,Greenwood,38930,Leflore,337112,260248,260248,28397,3485,1.46,17.95,5,http://WWW.BANKCOM.COM,"Commerce Bancorp, Inc",2.1,1,0,NM,STATE,12/31/9999,8/4/1904,1/1/1934,9/30/2014,9/30/2014,1,28083,Jackson Ms,FDIC,0,MS,0,0
4,Commercial Lending Specialization,FIRST COMMERCIAL BANK,1300 Meadowbrook Road,Jackson,39211,Hinds,317984,256965,256965,35851,1934,0.89,7.39,2,http://www.firstcommercialbk.com,"First Commercial Bancshares, Inc.",1.27,1,0,NM,STATE,12/31/9999,10/12/2000,10/12/2000,9/30/2014,9/30/2014,1,28049,Jackson Ms,FDIC,0,MS,0,0
4,Commercial Lending Specialization,Magnolia State Bank,15 East Sixth Avenue,Bay Springs,39422,Jasper,315712,271154,271154,29477,2879,1.24,13.49,8,www.bankmagnolia.com,"Magnolia State Corporation, The",1.24,0,0,NM,STATE,12/31/9999,8/4/1975,8/4/1975,9/30/2014,9/30/2014,1,28061,Jackson Ms,FDIC,0,MS,0,1
4,Commercial Lending Specialization,RiverHills Bank,702 Market Street,Port Gibson,39150,Claiborne,283157,231674,231674,27427,3097,1.43,15.71,3,http://RIVERHILLSBANK.COM,Riverhills Capital Corporation,1.43,1,0,NM,STATE,12/31/9999,1890-02-01,1/1/1934,9/30/2014,9/30/2014,1,28021,Jackson Ms,FDIC,0,MS,0,1
4,Commercial Lending Specialization,Farmers and Merchants Bank,111 West Clayton Street,Baldwyn,38824,Prentiss,257553,191120,191120,36795,2403,1.31,9.06,8,www.fmbms.com, ,1.87,0,0,NM,STATE,12/31/9999,3/10/1941,3/10/1941,9/30/2014,9/30/2014,1,28117,Jackson Ms,FDIC,0, ,0,0
4,Commercial Lending Specialization,Century Bank,4282 Main Street,Lucedale,39452,George,254772,211627,211627,27856,1532,0.8,7.59,11,www.centurybankms.com,"Bancorp Of Lucedale, Inc.",1.08,0,0,NM,STATE,12/31/9999,6/1/1903,1/1/1934,9/30/2014,9/30/2014,1,28039,Jackson Ms,FDIC,0,MS,1,0
4,Commercial Lending Specialization,Peoples Bank,154 Maud Avenue,Mendenhall,39114,Simpson,245791,203862,203862,24101,4013,2.21,22.96,7,http://www.peoplesbank-ms.com,"Peoples Bancshares, Inc.",2.21,1,0,NM,STATE,12/31/9999,11/5/1908,1/1/1934,9/30/2014,9/30/2014,1,28127,Jackson Ms,FDIC,0,MS,1,1
4,Commercial Lending Specialization,FNB Oxford Bank,101 Courthouse Square,Oxford,38655,Lafayette,243948,210248,210248,32886,1729,0.96,7.17,6,http://www.fnboxford.com,First National Holding Company,1.19,1,0,SM,STATE,12/31/9999,10/10/1910,1/1/1934,9/30/2014,9/30/2014,1,28071,Memphis,FED,0,MS,0,0
4,Commercial Lending Specialization,Covenant Bank,206 Sharkey Avenue,Clarksdale,38614,Coahoma,226402,180899,180899,25636,942,0.54,5,6,www.covenantbank.net,Covenant Financial Corporation,0.67,0,0,NM,STATE,12/31/9999,10/25/2000,10/25/2000,9/30/2014,9/30/2014,1,28027,Memphis,FDIC,0,MS,0,0
4,Commercial Lending Specialization,The Cleveland State Bank,110 Commerce Avenue,Cleveland,38732,Bolivar,215391,187490,187490,20773,1097,0.67,7.43,5,www.clevelandstatebank.com,"Cleveland State Bancorp, Inc.",0.9,1,0,NM,STATE,12/31/9999,2/8/1908,1/1/1934,9/30/2014,9/30/2014,1,28011,Jackson Ms,FDIC,0,MS,0,0
4,Commercial Lending Specialization,Mechanics Bank,319 North Main Street,Water Valley,38965,Yalobusha,213985,190426,190426,22046,741,0.46,4.6,6,http://www.mechanicsbankms.com,Mechanics Banc Holding Company,0.64,1,0,NM,STATE,12/31/9999,1892-01-01,1/1/1934,9/30/2014,9/30/2014,1,28161,Memphis,FDIC,0,MS,0,0
4,Commercial Lending Specialization,Pike National Bank,350 Rawls Drive,Mccomb,39648,Pike,203490,154528,154528,28201,1280,0.84,6.23,10,www.pnb-ms.net,Pcnb Corp.,1.34,0,0,N,OCC,12/31/9999,9/30/1985,9/30/1985,9/30/2014,9/30/2014,0,28113,Jackson Ms,OCC,0,MS,0,0
4,Commercial Lending Specialization,First National Bank of Picayune,121 East Canal Street,Picayune,39466,Pearl River,199939,173347,173347,26182,3552,2.36,18.27,6,http://www.fnbop.com,First National Corporation Of Picayune,2.36,0,0,N,OCC,12/31/9999,7/31/1947,7/31/1947,9/30/2014,9/30/2014,0,28109,Jackson Ms,OCC,0,MS,0,1
4,Commercial Lending Specialization,Sycamore Bank,301 East Main Street,Senatobia,38668,Tate,194575,173724,173724,19157,1314,0.87,9.33,5,www.sycamorebank.com,Tate Financial Corporation,1.27,1,0,NM,STATE,12/31/9999,3/13/1900,1/1/1934,9/30/2014,9/30/2014,1,28137,Memphis,FDIC,0,MS,0,0
4,Commercial Lending Specialization,First Southern Bank,1075 Highway 98,Columbia,39429,Marion,193829,167689,167689,19105,1419,0.97,10.2,7,http://www.fsb-ms.com,First Federal Bancorp,0.97,0,0,NM,STATE,12/31/9999,3/28/1960,3/28/1960,9/30/2014,9/30/2014,1,28091,Jackson Ms,FDIC,0,MS,0,1
4,Commercial Lending Specialization,Bank of Wiggins,109 West Pine Avenue,Wiggins,39577,Stone,185868,157529,157529,27054,1362,0.98,6.96,3,http://www.bankofwiggins.com, ,1.39,1,0,NM,STATE,12/31/9999,12/4/1916,1/1/1934,9/30/2014,9/30/2014,1,28131,Jackson Ms,FDIC,0, ,0,0
4,Commercial Lending Specialization,"Copiah Bank, National Association",101 Caldwell Drive,Hazlehurst,39083,Copiah,167731,149136,149136,17756,1118,0.9,8.56,8,copiahbank.com,"Copiah Bancshares, Inc.",1.33,1,0,N,OCC,12/31/9999,1891-10-26,1/1/1934,9/30/2014,9/30/2014,0,28029,Jackson Ms,OCC,0,MS,0,0
4,Commercial Lending Specialization,The Bank of Forest,211 West Third Street,Forest,39074,Scott,147772,120807,120807,21126,1017,0.92,6.57,3,http://bkforest.com,First Forest Corporation,0.92,0,0,NM,STATE,12/31/9999,3/27/1900,1/1/1934,9/30/2014,9/30/2014,1,28123,Jackson Ms,FDIC,0,MS,0,1
4,Commercial Lending Specialization,Bank of Brookhaven,411 Brookway Boulevard,Brookhaven,39601,Lincoln,139274,120270,120270,16525,1034,0.99,8.72,1,http://www.bankofbrookhaven.com,Haven Capital Corporation,1.35,1,0,NM,STATE,12/31/9999,1/31/2000,1/31/2000,9/30/2014,9/30/2014,1,28085,Jackson Ms,FDIC,0,MS,0,0
4,Commercial Lending Specialization,Bank of Kilmichael,120 North Depot Avenue,Kilmichael,39747,Montgomery,137592,121630,121630,12169,1400,1.37,15.87,3,www.bankofkilmichael.com,"Kilmichael Bancorp, Inc.",1.37,1,0,NM,STATE,12/31/9999,9/16/1904,1/1/1934,9/30/2014,9/30/2014,1,28097,Jackson Ms,FDIC,0,MS,0,1
4,Commercial Lending Specialization,Bank of Franklin,9 Main Street,Meadville,39653,Franklin,128857,116202,116202,12177,793,0.83,9.06,5,www.bankoffranklin.com,"Franklin Bancshares, Inc.",1.22,1,0,NM,STATE,12/31/9999,1/12/1912,1/1/1934,9/30/2014,9/30/2014,1,28037,Jackson Ms,FDIC,0,MS,0,0
4,Commercial Lending Specialization,First State Bank,College Avenue And Alderson Street,Holly Springs,38635,Marshall,113908,101828,101828,11664,228,0.26,2.66,3,http://www.firststatenet.com,First State Capital Corporation,0.29,1,0,NM,STATE,12/31/9999,7/1/1916,1/1/1934,9/30/2014,9/30/2014,1,28093,Memphis,FDIC,0,MS,0,0
4,Commercial Lending Specialization,Charter Bank,"1721 Medical Park Drive, Suite 103",Biloxi,39531,Harrison,113777,97881,97881,14188,27,0.03,0.26,4,www.mycharterbank.com, ,0.08,0,0,NM,STATE,12/31/9999,3/11/2008,3/11/2008,9/30/2014,9/30/2014,1,28047,Jackson Ms,FDIC,0, ,0,0
4,Commercial Lending Specialization,Oxford University Bank,1500 University Avenue,Oxford,38655,Lafayette,113693,97441,97441,10528,527,0.64,6.85,5,http://www.oubol.com,"Lafayette Bancorp, Inc.",0.88,0,0,NM,STATE,12/31/9999,11/27/2000,11/27/2000,9/30/2014,9/30/2014,1,28071,Memphis,FDIC,0,MS,0,0
4,Commercial Lending Specialization,Commerce Bank,306 South Cass Street,Corinth,38834,Alcorn,90179,77855,77855,12107,1215,1.78,13.81,1,http://www.cnbcorinth.com,Commerce Holding Corporation,1.78,0,0,SM,STATE,12/31/9999,1/19/1999,1/19/1999,9/30/2014,9/30/2014,1,28003,Jackson Ms,FED,0,MS,0,1
4,Commercial Lending Specialization,DeSoto County Bank,6040 Highway 51 North,Horn Lake,38637,Desoto,81801,71702,71702,9294,468,0.78,6.91,2,www.desotobank.com, ,1.39,0,0,NM,STATE,12/31/9999,1/23/2006,1/23/2006,9/30/2014,9/30/2014,1,28033,Memphis,FDIC,0, ,0,0
4,Commercial Lending Specialization,OmniBank,531 3rd Street,Bay Springs,39422,Jasper,47827,42181,42181,5347,-314,-0.87,-7.69,3,http://NA, ,-0.87,1,0,NM,STATE,12/31/9999,1/1/1907,1/1/1934,9/30/2014,9/30/2014,1,28061,Jackson Ms,FDIC,0, ,0,0
5,Mortgage Lending Specialization,First Federal Savings and Loan Association,903 Jackson Ave,Pascagoula,39567,Jackson,276782,171117,171117,23582,897,0.44,5.18,6,www.firstwithus.com, ,0.62,0,0,SA,OCC,12/31/9999,10/28/1955,10/28/1955,9/30/2014,9/30/2014,0,28059,Jackson Ms,OCC,0, ,0,0
5,Mortgage Lending Specialization,Amory Federal Savings and Loan Association,213 2nd Ave N,Amory,38821,Monroe,95555,85287,85287,10110,119,0.16,1.58,1,www.amoryfederal.com, ,0.11,0,0,SA,OCC,12/31/9999,6/1/1934,10/29/1934,9/30/2014,9/30/2014,0,28095,Jackson Ms,OCC,0, ,0,0
5,Mortgage Lending Specialization,"Grand Bank for Savings, FSB",204 Westover Drive,Hattiesburg,39402,Lamar,92687,79279,79279,12421,531,0.72,5.67,2,www.grandbankfsb.com, ,0.72,0,0,SA,OCC,12/31/9999,1/1/1968,4/13/1977,9/30/2014,9/30/2014,0,28073,Jackson Ms,OCC,0, ,0,1
5,Mortgage Lending Specialization,First Federal Savings and Loan Association,111 West Commerce Street,Aberdeen,39730,Monroe,30314,23698,23698,6580,140,0.6,2.86,1,firstfederalaberdeen.com, ,0.93,0,0,SA,OCC,12/31/9999,3/23/1936,3/23/1936,9/30/2014,9/30/2014,0,28095,Jackson Ms,OCC,0, ,0,0
7,Other Specialized Lending < 1 Billion,Merchants & Marine Bank,3118 Pascagoula Street,Pascagoula,39567,Jackson,566436,460441,460441,59733,4194,0.93,9.92,12,WWW.MANDMBANK.COM,"Merchants & Marine Bancorp, Inc.",1.3,1,0,NM,STATE,12/31/9999,1/11/1932,1/1/1934,9/30/2014,9/30/2014,1,28059,Jackson Ms,FDIC,0,MS,1,0
7,Other Specialized Lending < 1 Billion,The Peoples Bank,305 East Jefferson,Ripley,38663,Tippah,360425,305156,305156,37940,3033,1.12,10.94,6,WWW.PEOPLESRIPLEY.COM,"Peoples Corporation, The",1.44,1,0,NM,STATE,12/31/9999,3/3/1925,12/18/1941,9/30/2014,9/30/2014,1,28139,Memphis,FDIC,0,MS,0,0
7,Other Specialized Lending < 1 Billion,Bank of Jones County,1808 Highway 84 West,Laurel,39440,Jones,224578,194384,194384,27825,1952,1.15,9.9,2, ,"Jones County Bancshares, Inc.",1.54,1,0,NM,STATE,12/31/9999,9/21/1998,9/21/1998,9/30/2014,9/30/2014,1,28067,Jackson Ms,FDIC,0,MS,0,0
7,Other Specialized Lending < 1 Billion,Bank of Winona,312 North Applegate,Winona,38967,Montgomery,111877,96644,96644,11915,1036,1.22,12.89,1,bankofwinona.com,"Bancorp Of Winona, Inc.",1.22,1,0,NM,STATE,12/31/9999,1885-06-15,1/1/1934,9/30/2014,9/30/2014,1,28097,Jackson Ms,FDIC,0,MS,0,1
7,Other Specialized Lending < 1 Billion,Merchants and Planters Bank,308 Raymond Square,Raymond,39154,Hinds,86739,78796,78796,7542,197,0.3,3.63,5,http://www.mpbank.net, ,0.39,1,0,NM,STATE,12/31/9999,2/1/1906,1/1/1934,9/30/2014,9/30/2014,1,28049,Jackson Ms,FDIC,0, ,0,0
7,Other Specialized Lending < 1 Billion,Peoples Bank & Trust Company,106 E Main St,North Carrollton,38947,Carroll,64048,54920,54920,8979,495,1.03,7.56,2, ,Peoples Commerce Corporation,1.4,1,0,NM,STATE,12/31/9999,1/1/1918,1/1/1934,9/30/2014,9/30/2014,1,28015,Jackson Ms,FDIC,0,MS,0,0
7,Other Specialized Lending < 1 Billion,Bank of Benoit,28-30 Main Street,Benoit,38725,Bolivar,18063,16051,16051,1949,52,0.38,3.62,1, , ,0.38,0,0,NM,STATE,12/31/9999,1/1/1904,5/6/1941,9/30/2014,9/30/2014,1,28011,Jackson Ms,FDIC,0, ,0,0
8,All Other Specialization  < 1 Billion,Planters Bank & Trust Company,212 Catchings Street,Indianola,38751,Sunflower,791761,701279,701279,69883,6896,1.18,14.03,13,http://www.planters-bank.com,Planters Holding Company,1.65,1,0,NM,STATE,12/31/9999,4/10/1920,1/1/1934,9/30/2014,9/30/2014,1,28133,Jackson Ms,FDIC,0,MS,0,0
8,All Other Specialization  < 1 Billion,Great Southern National Bank,218 22nd Avenue South,Meridian,39301,Lauderdale,272616,245989,245989,25910,1648,0.81,8.65,14,www.gsnb.com,Great Southern Capital Corporation,1.16,1,0,N,OCC,12/31/9999,3/2/1902,1/1/1934,9/30/2014,9/30/2014,0,28075,Jackson Ms,OCC,0,MS,0,0
8,All Other Specialization  < 1 Billion,The First National Bank of Pontotoc,19 South Main Street,Pontotoc,38863,Pontotoc,258686,220481,220481,34710,1414,0.72,5.58,3,http://www.1stnbpontotoc.com,Pontotoc Bancshares Corp.,0.89,0,0,N,OCC,12/31/9999,1/1/1900,1/1/1934,9/30/2014,9/30/2014,0,28115,Memphis,OCC,0,MS,0,0
8,All Other Specialization  < 1 Billion,First American National Bank,1251 First American Drive,Iuka,38852,Tishomingo,258276,224102,224102,27614,1234,0.64,6,9,www.fanb.net,"First American Bancshares, Inc.",0.64,0,0,N,OCC,12/31/9999,9/5/1964,9/5/1964,9/30/2014,9/30/2014,0,28141,Jackson Ms,OCC,0,MS,0,1
8,All Other Specialization  < 1 Billion,Bank of Yazoo City,104 North Main Street,Yazoo City,39194,Yazoo,228180,195170,195170,22053,1425,0.83,9.01,7,http://www.bankofyazoo.com,Yazoo Capital Corporation,1.09,1,0,NM,STATE,12/31/9999,1876-04-15,1/1/1934,9/30/2014,9/30/2014,1,28163,Jackson Ms,FDIC,0,MS,0,0
8,All Other Specialization  < 1 Billion,The Bank of Holly Springs,114 S Memphis St,Holly Springs,38635,Marshall,206955,174301,174301,29205,2776,1.77,13.21,5,http://www.bankofhollysprings.com,Holly Springs Bancshares Inc,1.77,0,0,NM,STATE,12/31/9999,1869-02-01,1/1/1934,9/30/2014,9/30/2014,1,28093,Memphis,FDIC,0,MS,0,1
8,All Other Specialization  < 1 Billion,Newton County Bank,114 East Church Street,Newton,39345,Newton,157990,135135,135135,21245,1657,1.4,10.49,6,www.newtoncountybank.com,"Newton County Bancorporation, Inc. Employee Stock Ownership Plan",1.4,1,0,NM,STATE,12/31/9999,9/4/1912,1/1/1934,9/30/2014,9/30/2014,1,28101,Jackson Ms,FDIC,0,MS,0,1
8,All Other Specialization  < 1 Billion,The Commercial Bank,175 Hopper Avenue,De Kalb,39328,Kemper,126180,106005,106005,13286,582,0.6,6.02,5,www.commercialbankms.com,Commercial Capital Corporation,0.89,0,0,NM,STATE,12/31/9999,12/1/1914,1/1/1934,9/30/2014,9/30/2014,1,28069,Jackson Ms,FDIC,0,MS,0,0
8,All Other Specialization  < 1 Billion,Holmes County Bank & Trust Company,316 Court Square,Lexington,39095,Holmes,109824,94694,94694,13004,216,0.26,2.25,4,http://www.holmesbk.com,Holmes County Capital Corporation,0.26,1,0,NM,STATE,12/31/9999,1/1/1932,1/1/1934,9/30/2014,9/30/2014,1,28051,Jackson Ms,FDIC,0,MS,0,1
8,All Other Specialization  < 1 Billion,Merchants & Farmers Bank,650 Highway 7 South,Holly Springs,38635,Marshall,91764,80667,80667,9754,479,0.7,7.02,6,http://www.mandfbankhs.com,"M & F Bancorp, Inc.",0.7,1,0,NM,STATE,12/31/9999,1899-03-15,1/1/1934,9/30/2014,9/30/2014,1,28093,Memphis,FDIC,0,MS,0,1
8,All Other Specialization  < 1 Billion,Citizens Bank,8077 State Highway 178,Byhalia,38611,Marshall,69804,61250,61250,8224,460,0.86,7.81,3,http://WWW.CITIZENSBYHALIA.COM,Marshall Financial Corporation,0.97,0,0,NM,STATE,12/31/9999,11/1/1919,1/1/1934,9/30/2014,9/30/2014,1,28093,Memphis,FDIC,0,MS,0,0
8,All Other Specialization  < 1 Billion,Bank of Morton,366 South 4th Street,Morton,39117,Scott,66815,56210,56210,8502,1219,2.49,19.61,1,www.bankofmorton.com,"Morton Bancorp, Inc.",2.49,0,0,NM,STATE,12/31/9999,1/1/1904,1/1/1934,9/30/2014,9/30/2014,1,28123,Jackson Ms,FDIC,0,MS,0,1
8,All Other Specialization  < 1 Billion,Richton Bank & Trust Company,114 South Front Street,Richton,39476,Perry,63642,54021,54021,9347,410,0.85,5.94,3,www.richtonbank.com,"Centon Bancorp, Inc.",0.85,0,0,NM,STATE,12/31/9999,1/1/1931,1/1/1934,9/30/2014,9/30/2014,1,28111,Jackson Ms,FDIC,0,MS,0,1
8,All Other Specialization  < 1 Billion,Bank of Walnut Grove,101 Chadwick Ave,Walnut Grove,39189,Leake,54603,46152,46152,8014,444,1.1,7.6,1, , ,1.14,0,0,NM,STATE,12/31/9999,1/1/1923,1/1/1934,9/30/2014,9/30/2014,1,28079,Jackson Ms,FDIC,0, ,0,1
